{"type": "FeatureCollection", "features": [ {"type": "Feature", "properties": {"norad_id": 39122, "name": "EUTELSAT 117 WEST A", "group": "eutelsat", "lat": 0.04391756235060266, "lon": 106.11818007996247, "alt_km": 35796.88937275502, "timestamp": "2025-12-19T08:58:49.008563+00:00", "meta": {"OBJECT_NAME": "EUTELSAT 117 WEST A", "OBJECT_ID": "2013-012A", "EPOCH": "2025-12-18T23:00:43.782048", "MEAN_MOTION": 1.00272954, "ECCENTRICITY": 0.00027065, "INCLINATION": 0.0289, "RA_OF_ASC_NODE": 47.8099, "ARG_OF_PERICENTER": 224.9599, "MEAN_ANOMALY": 43.4335, "EPHEMERIS_TYPE": 0, "CLASSIFICATION_TYPE": "U", "NORAD_CAT_ID": 39122, "ELEMENT_SET_NO": 999, "REV_AT_EPOCH": 4662, "BSTAR": 0, "MEAN_MOTION_DOT": 1.2e-07, "MEAN_MOTION_DDOT": 0}, "tle": {"line1": "1 39122U 13012A   25352.95884007  .00000012  00000+0  00000+0 0  9993", "line2": "2 39122   0.0289  47.8099 0002706 224.9599  43.4335  1.00272954 46620"}}, "geometry": {"type": "Point", "coordinates": [106.11818007996247, 0.04391756235060266]}}, {"type": "Feature", "properties": {"norad_id": 39163, "name": "EUTELSAT 7B", "group": "eutelsat", "lat": -0.07596227765889456, "lon": -130.1313559590327, "alt_km": 35787.550425288944, "timestamp": "2025-12-19T08:58:49.008576+00:00", "meta": {"OBJECT_NAME": "EUTELSAT 7B", "OBJECT_ID": "2013-022A", "EPOCH": "2025-12-18T20:10:37.572960", "MEAN_MOTION": 1.00269498, "ECCENTRICITY": 0.00042706, "INCLINATION": 0.0652, "RA_OF_ASC_NODE": 356.1104, "ARG_OF_PERICENTER": 326.7712, "MEAN_ANOMALY": 74.4777, "EPHEMERIS_TYPE": 0, "CLASSIFICATION_TYPE": "U", "NORAD_CAT_ID": 39163, "ELEMENT_SET_NO": 999, "REV_AT_EPOCH": 4613, "BSTAR": 0, "MEAN_MOTION_DOT": 7.3e-07, "MEAN_MOTION_DDOT": 0}, "tle": {"line1": "1 39163U 13022A   25352.84071265  .00000073  00000+0  00000+0 0  9998", "line2": "2 39163   0.0652 356.1104 0004270 326.7712  74.4777  1.00269498 46137"}}, "geometry": {"type": "Point", "coordinates": [-130.1313559590327, -0.07596227765889456]}}, {"type": "Feature", "properties": {"norad_id": 39612, "name": "EXPRESS-AT1", "group": "eutelsat", "lat": -0.024434333092532966, "lon": -81.08385665868171, "alt_km": 35788.433747273884, "timestamp": "2025-12-19T08:58:49.008588+00:00", "meta": {"OBJECT_NAME": "EXPRESS-AT1", "OBJECT_ID": "2014-010A", "EPOCH": "2025-12-18T20:24:36.234432", "MEAN_MOTION": 1.00271181, "ECCENTRICITY": 5.914e-05, "INCLINATION": 0.0193, "RA_OF_ASC_NODE": 300.181, "ARG_OF_PERICENTER": 185.8396, "MEAN_ANOMALY": 323.8349, "EPHEMERIS_TYPE": 0, "CLASSIFICATION_TYPE": "U", "NORAD_CAT_ID": 39612, "ELEMENT_SET_NO": 999, "REV_AT_EPOCH": 4301, "BSTAR": 0, "MEAN_MOTION_DOT": 1.04e-06, "MEAN_MOTION_DDOT": 0}, "tle": {"line1": "1 39612U 14010A   25352.85041938  .00000104  00000+0  00000+0 0  9995", "line2": "2 39612   0.0193 300.1810 0000591 185.8396 323.8349  1.00271181 43015"}}, "geometry": {"type": "Point", "coordinates": [-81.08385665868171, -0.024434333092532966]}}, {"type": "Feature", "properties": {"norad_id": 39613, "name": "EXPRESS-AT2", "group": "eutelsat", "lat": 0.018679295815525004, "lon": 2.7843455573602776, "alt_km": 35784.97607961134, "timestamp": "2025-12-19T08:58:49.008600+00:00", "meta": {"OBJECT_NAME": "EXPRESS-AT2", "OBJECT_ID": "2014-010B", "EPOCH": "2025-12-18T22:31:16.603104", "MEAN_MOTION": 1.00271791, "ECCENTRICITY": 0.00010065, "INCLINATION": 0.013, "RA_OF_ASC_NODE": 301.9106, "ARG_OF_PERICENTER": 346.7821, "MEAN_ANOMALY": 276.777, "EPHEMERIS_TYPE": 0, "CLASSIFICATION_TYPE": "U", "NORAD_CAT_ID": 39613, "ELEMENT_SET_NO": 999, "REV_AT_EPOCH": 4269, "BSTAR": 0, "MEAN_MOTION_DOT": -2.56e-06, "MEAN_MOTION_DDOT": 0}, "tle": {"line1": "1 39613U 14010B   25352.93838661 -.00000256  00000+0  00000+0 0  9991", "line2": "2 39613   0.0130 301.9106 0001006 346.7821 276.7770  1.00271791 42691"}}, "geometry": {"type": "Point", "coordinates": [2.7843455573602776, 0.018679295815525004]}}, {"type": "Feature", "properties": {"norad_id": 39773, "name": "EUTELSAT 3B", "group": "eutelsat", "lat": -0.06287429592595414, "lon": -133.9981160220606, "alt_km": 35768.30418464653, "timestamp": "2025-12-19T08:58:49.008611+00:00", "meta": {"OBJECT_NAME": "EUTELSAT 3B", "OBJECT_ID": "2014-030A", "EPOCH": "2025-12-18T21:13:26.602752", "MEAN_MOTION": 1.00272279, "ECCENTRICITY": 0.00041974, "INCLINATION": 0.0604, "RA_OF_ASC_NODE": 3.0827, "ARG_OF_PERICENTER": 229.2021, "MEAN_ANOMALY": 176.9063, "EPHEMERIS_TYPE": 0, "CLASSIFICATION_TYPE": "U", "NORAD_CAT_ID": 39773, "ELEMENT_SET_NO": 999, "REV_AT_EPOCH": 4225, "BSTAR": 0, "MEAN_MOTION_DOT": 4.5e-07, "MEAN_MOTION_DDOT": 0}, "tle": {"line1": "1 39773U 14030A   25352.88433568  .00000045  00000+0  00000+0 0  9996", "line2": "2 39773   0.0604   3.0827 0004197 229.2021 176.9063  1.00272279 42255"}}, "geometry": {"type": "Point", "coordinates": [-133.9981160220606, -0.06287429592595414]}}, {"type": "Feature", "properties": {"norad_id": 40425, "name": "EUTELSAT 115 WEST B", "group": "eutelsat", "lat": -0.007755839091407078, "lon": 108.02001529357291, "alt_km": 35787.655044815176, "timestamp": "2025-12-19T08:58:49.008623+00:00", "meta": {"OBJECT_NAME": "EUTELSAT 115 WEST B", "OBJECT_ID": "2015-010B", "EPOCH": "2025-12-18T23:01:13.734336", "MEAN_MOTION": 1.00271755, "ECCENTRICITY": 4.019e-05, "INCLINATION": 0.0161, "RA_OF_ASC_NODE": 149.2312, "ARG_OF_PERICENTER": 160.3744, "MEAN_ANOMALY": 8.6176, "EPHEMERIS_TYPE": 0, "CLASSIFICATION_TYPE": "U", "NORAD_CAT_ID": 40425, "ELEMENT_SET_NO": 999, "REV_AT_EPOCH": 3958, "BSTAR": 0, "MEAN_MOTION_DOT": 0, "MEAN_MOTION_DDOT": 0}, "tle": {"line1": "1 40425U 15010B   25352.95918674  .00000000  00000+0  00000+0 0  9996", "line2": "2 40425   0.0161 149.2312 0000401 160.3744   8.6176  1.00271755 39588"}}, "geometry": {"type": "Point", "coordinates": [108.02001529357291, -0.007755839091407078]}}, {"type": "Feature", "properties": {"norad_id": 40875, "name": "EUTELSAT 8 WEST B", "group": "eutelsat", "lat": -0.05995849686342963, "lon": -145.11770822760715, "alt_km": 35776.013924212115, "timestamp": "2025-12-19T08:58:49.008636+00:00", "meta": {"OBJECT_NAME": "EUTELSAT 8 WEST B", "OBJECT_ID": "2015-039B", "EPOCH": "2025-12-18T21:13:38.602848", "MEAN_MOTION": 1.00270031, "ECCENTRICITY": 0.00042991, "INCLINATION": 0.0634, "RA_OF_ASC_NODE": 354.5841, "ARG_OF_PERICENTER": 274.9248, "MEAN_ANOMALY": 128.6519, "EPHEMERIS_TYPE": 0, "CLASSIFICATION_TYPE": "U", "NORAD_CAT_ID": 40875, "ELEMENT_SET_NO": 999, "REV_AT_EPOCH": 3784, "BSTAR": 0, "MEAN_MOTION_DOT": -4.1e-07, "MEAN_MOTION_DDOT": 0}, "tle": {"line1": "1 40875U 15039B   25352.88447457 -.00000041  00000+0  00000+0 0  9990", "line2": "2 40875   0.0634 354.5841 0004299 274.9248 128.6519  1.00270031 37847"}}, "geometry": {"type": "Point", "coordinates": [-145.11770822760715, -0.05995849686342963]}}, {"type": "Feature", "properties": {"norad_id": 41310, "name": "EUTELSAT 9B", "group": "eutelsat", "lat": -0.003003465496227297, "lon": -128.12711449369635, "alt_km": 35771.96162759469, "timestamp": "2025-12-19T08:58:49.008647+00:00", "meta": {"OBJECT_NAME": "EUTELSAT 9B", "OBJECT_ID": "2016-005A", "EPOCH": "2025-12-18T20:11:07.525248", "MEAN_MOTION": 1.00272233, "ECCENTRICITY": 0.0004465, "INCLINATION": 0.0591, "RA_OF_ASC_NODE": 70.5014, "ARG_OF_PERICENTER": 203.9652, "MEAN_ANOMALY": 125.0024, "EPHEMERIS_TYPE": 0, "CLASSIFICATION_TYPE": "U", "NORAD_CAT_ID": 41310, "ELEMENT_SET_NO": 999, "REV_AT_EPOCH": 3630, "BSTAR": 0, "MEAN_MOTION_DOT": 8.7e-07, "MEAN_MOTION_DDOT": 0}, "tle": {"line1": "1 41310U 16005A   25352.84105932  .00000087  00000+0  00000+0 0  9993", "line2": "2 41310   0.0591  70.5014 0004465 203.9652 125.0024  1.00272233 36305"}}, "geometry": {"type": "Point", "coordinates": [-128.12711449369635, -0.003003465496227297]}}, {"type": "Feature", "properties": {"norad_id": 41382, "name": "EUTELSAT 65 WEST A", "group": "eutelsat", "lat": -0.005140462688954979, "lon": 157.66940734780925, "alt_km": 35791.662429499534, "timestamp": "2025-12-19T08:58:49.008665+00:00", "meta": {"OBJECT_NAME": "EUTELSAT 65 WEST A", "OBJECT_ID": "2016-014A", "EPOCH": "2025-12-18T19:50:02.045184", "MEAN_MOTION": 1.00269647, "ECCENTRICITY": 0.00023057, "INCLINATION": 0.0554, "RA_OF_ASC_NODE": 328.4571, "ARG_OF_PERICENTER": 309.5973, "MEAN_ANOMALY": 41.9178, "EPHEMERIS_TYPE": 0, "CLASSIFICATION_TYPE": "U", "NORAD_CAT_ID": 41382, "ELEMENT_SET_NO": 999, "REV_AT_EPOCH": 3572, "BSTAR": 0, "MEAN_MOTION_DOT": -2.51e-06, "MEAN_MOTION_DDOT": 0}, "tle": {"line1": "1 41382U 16014A   25352.82641256 -.00000251  00000+0  00000+0 0  9998", "line2": "2 41382   0.0554 328.4571 0002305 309.5973  41.9178  1.00269647 35722"}}, "geometry": {"type": "Point", "coordinates": [157.66940734780925, -0.005140462688954979]}}, {"type": "Feature", "properties": {"norad_id": 41589, "name": "EUTELSAT 117 WEST B", "group": "eutelsat", "lat": -0.010475079275901026, "lon": 105.92987885899062, "alt_km": 35787.69175668442, "timestamp": "2025-12-19T08:58:49.008677+00:00", "meta": {"OBJECT_NAME": "EUTELSAT 117 WEST B", "OBJECT_ID": "2016-038B", "EPOCH": "2025-12-18T23:00:43.782048", "MEAN_MOTION": 1.00271973, "ECCENTRICITY": 3.963e-05, "INCLINATION": 0.0143, "RA_OF_ASC_NODE": 155.6363, "ARG_OF_PERICENTER": 131.3163, "MEAN_ANOMALY": 29.0566, "EPHEMERIS_TYPE": 0, "CLASSIFICATION_TYPE": "U", "NORAD_CAT_ID": 41589, "ELEMENT_SET_NO": 999, "REV_AT_EPOCH": 3485, "BSTAR": 0, "MEAN_MOTION_DOT": 1.3e-07, "MEAN_MOTION_DDOT": 0}, "tle": {"line1": "1 41589U 16038B   25352.95884007  .00000013  00000+0  00000+0 0  9995", "line2": "2 41589   0.0143 155.6363 0000396 131.3163  29.0566  1.00271973 34850"}}, "geometry": {"type": "Point", "coordinates": [105.92987885899062, -0.010475079275901026]}}]}